PROVINCE,DIVISION,DISTRICT,TEHSIL,TEHSIL CODE,UC,UC OFFICIAL,UC_UR,UC NUMBER,UC_Code,LATITUDE,LONGITUDE,NUMBER OF VILLAGES,V.NO,V.CODE,VILLAGE NAME
ISLAMABAD CAPITAL TERRITORY,ISLAMABAD,ISLAMABAD DISTRICT,ISLAMABAD TEHSIL,6111,Barakaho,Barakaho,2,1,611121,33.70930150,73.15470040,1,1,6111211,Barakaho
ISLAMABAD CAPITAL TERRITORY,ISLAMABAD,ISLAMABAD DISTRICT,ISLAMABAD TEHSIL,6111,kuri,kuri,2,2,611122,33.67805660,73.18268810,7,7,6111227,KURI (CHAPRA/BLIGHA KURI)
ISLAMABAD CAPITAL TERRITORY,ISLAMABAD,ISLAMABAD DISTRICT,ISLAMABAD TEHSIL,6111,kuri,kuri,2,2,611122,33.67805660,73.18268810,7,6,6111226,NEW MAL
ISLAMABAD CAPITAL TERRITORY,ISLAMABAD,ISLAMABAD DISTRICT,ISLAMABAD TEHSIL,6111,kuri,kuri,2,2,611122,33.67805660,73.18268810,7,5,6111225,JAGIOT
ISLAMABAD CAPITAL TERRITORY,ISLAMABAD,ISLAMABAD DISTRICT,ISLAMABAD TEHSIL,6111,kuri,kuri,2,2,611122,33.67805660,73.18268810,7,4,6111224,NAUGHAZI
ISLAMABAD CAPITAL TERRITORY,ISLAMABAD,ISLAMABAD DISTRICT,ISLAMABAD TEHSIL,6111,kuri,kuri,2,2,611122,33.67805660,73.18268810,7,3,6111223,RIHARA
ISLAMABAD CAPITAL TERRITORY,ISLAMABAD,ISLAMABAD DISTRICT,ISLAMABAD TEHSIL,6111,kuri,kuri,2,2,611122,33.67805660,73.18268810,7,2,6111222,CHAKSHAZAD
ISLAMABAD CAPITAL TERRITORY,ISLAMABAD,ISLAMABAD DISTRICT,ISLAMABAD TEHSIL,6111,kuri,kuri,2,2,611122,33.67805660,73.18268810,7,1,6111221,MALOT
ISLAMABAD CAPITAL TERRITORY,ISLAMABAD,ISLAMABAD DISTRICT,ISLAMABAD TEHSIL,6111,Lakhwal Bani gala,Lakhwal Bani gala,2,3,611123,33.70930150,73.15470040,3,3,6111233,LAKHWAL
ISLAMABAD CAPITAL TERRITORY,ISLAMABAD,ISLAMABAD DISTRICT,ISLAMABAD TEHSIL,6111,Lakhwal Bani gala,Lakhwal Bani gala,2,3,611123,33.70930150,73.15470040,3,2,6111232,BANI GALA SOUTH
ISLAMABAD CAPITAL TERRITORY,ISLAMABAD,ISLAMABAD DISTRICT,ISLAMABAD TEHSIL,6111,Lakhwal Bani gala,Lakhwal Bani gala,2,3,611123,33.70930150,73.15470040,3,1,6111231,BANI GALA NORTH
ISLAMABAD CAPITAL TERRITORY,ISLAMABAD,ISLAMABAD DISTRICT,ISLAMABAD TEHSIL,6111,MUGHAL,MUGHAL,2,4,611124,33.57758019,73.22128225,1,1,6111241,MUGHAL
ISLAMABAD CAPITAL TERRITORY,ISLAMABAD,ISLAMABAD DISTRICT,ISLAMABAD TEHSIL,6111,UC N0. 72 Jhangi Syeedan,UC N0. 72 Jhangi Syeedan,2,5,611125,33.61802281,72.93954141,1,1,6111251,UC N0. 72 Jhangi Syeedan
ISLAMABAD CAPITAL TERRITORY,ISLAMABAD,ISLAMABAD DISTRICT,ISLAMABAD TEHSIL,6111,UC N0. 73 Badhana Kallan,UC N0. 73 Badhana Kallan,2,6,611126,33.61825491,72.90305325,1,1,6111261,UC N0. 73 Badhana Kallan
ISLAMABAD CAPITAL TERRITORY,ISLAMABAD,ISLAMABAD DISTRICT,ISLAMABAD TEHSIL,6111,UC N0. 74 Tarnol ,UC N0. 74 Tarnol ,2,7,611127,33.64986503,72.90432601,1,1,6111271,UC N0. 74 Tarnol 
ISLAMABAD CAPITAL TERRITORY,ISLAMABAD,ISLAMABAD DISTRICT,ISLAMABAD TEHSIL,6111,UC N0. 75 Sangjani,UC N0. 75 Sangjani,2,8,611128,33.67481823,72.8475523,1,1,6111281,UC N0. 75 Sangjani
ISLAMABAD CAPITAL TERRITORY,ISLAMABAD,ISLAMABAD DISTRICT,ISLAMABAD TEHSIL,6111,UC N0. 76 Saraye Kharboza,UC N0. 76 Saraye Kharboza,2,9,611129,33.68097096,72.90454843,1,1,6111291,UC N0. 76 Saraye Kharboza
ISLAMABAD CAPITAL TERRITORY,ISLAMABAD,ISLAMABAD DISTRICT,ISLAMABAD TEHSIL,6111,UC No.1 SAIDPUR,UC No.1 SAIDPUR,2,10,6111210,33.75213980,73.05564920,3,3,61112103,SAIDPUR
ISLAMABAD CAPITAL TERRITORY,ISLAMABAD,ISLAMABAD DISTRICT,ISLAMABAD TEHSIL,6111,UC No.1 SAIDPUR,UC No.1 SAIDPUR,2,10,6111210,33.75213980,73.05564920,3,2,61112102,TALHAR
ISLAMABAD CAPITAL TERRITORY,ISLAMABAD,ISLAMABAD DISTRICT,ISLAMABAD TEHSIL,6111,UC No.1 SAIDPUR,UC No.1 SAIDPUR,2,10,6111210,33.75213980,73.05564920,3,1,61112101,GOKINA
ISLAMABAD CAPITAL TERRITORY,ISLAMABAD,ISLAMABAD DISTRICT,ISLAMABAD TEHSIL,6111,UC No.10 Tumair,UC No.10 Tumair,2,11,6111211,33.67292446,73.28314299,1,1,61112111,UC No.10 Tumair
ISLAMABAD CAPITAL TERRITORY,ISLAMABAD,ISLAMABAD DISTRICT,ISLAMABAD TEHSIL,6111,UC No.11 Charah,UC No.11 Charah,2,12,6111212,33.64866002,73.2848681,1,1,61112121,UC No.11 Charah
ISLAMABAD CAPITAL TERRITORY,ISLAMABAD,ISLAMABAD DISTRICT,ISLAMABAD TEHSIL,6111,UC No.14 Sihala,UC No.14 Sihala,2,13,6111213,33.55817170,73.14051550,23,23,611121323,PWD
ISLAMABAD CAPITAL TERRITORY,ISLAMABAD,ISLAMABAD DISTRICT,ISLAMABAD TEHSIL,6111,UC No.14 Sihala,UC No.14 Sihala,2,13,6111213,33.55817170,73.14051550,23,22,611121322,BHARIA TOWN
ISLAMABAD CAPITAL TERRITORY,ISLAMABAD,ISLAMABAD DISTRICT,ISLAMABAD TEHSIL,6111,UC No.14 Sihala,UC No.14 Sihala,2,13,6111213,33.55817170,73.14051550,23,21,611121321,SOAN GARDEN
ISLAMABAD CAPITAL TERRITORY,ISLAMABAD,ISLAMABAD DISTRICT,ISLAMABAD TEHSIL,6111,UC No.14 Sihala,UC No.14 Sihala,2,13,6111213,33.55817170,73.14051550,23,20,611121320,RIVER GARDEN
ISLAMABAD CAPITAL TERRITORY,ISLAMABAD,ISLAMABAD DISTRICT,ISLAMABAD TEHSIL,6111,UC No.14 Sihala,UC No.14 Sihala,2,13,6111213,33.55817170,73.14051550,23,19,611121319,SIHALA KHURD
ISLAMABAD CAPITAL TERRITORY,ISLAMABAD,ISLAMABAD DISTRICT,ISLAMABAD TEHSIL,6111,UC No.14 Sihala,UC No.14 Sihala,2,13,6111213,33.55817170,73.14051550,23,18,611121318,SIHALA MIRZIAN
ISLAMABAD CAPITAL TERRITORY,ISLAMABAD,ISLAMABAD DISTRICT,ISLAMABAD TEHSIL,6111,UC No.14 Sihala,UC No.14 Sihala,2,13,6111213,33.55817170,73.14051550,23,17,611121317,GAGRI
ISLAMABAD CAPITAL TERRITORY,ISLAMABAD,ISLAMABAD DISTRICT,ISLAMABAD TEHSIL,6111,UC No.14 Sihala,UC No.14 Sihala,2,13,6111213,33.55817170,73.14051550,23,16,611121316,HOON DHAMIAL
ISLAMABAD CAPITAL TERRITORY,ISLAMABAD,ISLAMABAD DISTRICT,ISLAMABAD TEHSIL,6111,UC No.14 Sihala,UC No.14 Sihala,2,13,6111213,33.55817170,73.14051550,23,15,611121315,DARWALA
ISLAMABAD CAPITAL TERRITORY,ISLAMABAD,ISLAMABAD DISTRICT,ISLAMABAD TEHSIL,6111,UC No.14 Sihala,UC No.14 Sihala,2,13,6111213,33.55817170,73.14051550,23,14,611121314,BOORA BANGIAL
ISLAMABAD CAPITAL TERRITORY,ISLAMABAD,ISLAMABAD DISTRICT,ISLAMABAD TEHSIL,6111,UC No.14 Sihala,UC No.14 Sihala,2,13,6111213,33.55817170,73.14051550,23,13,611121313,NARI SYEDAN
ISLAMABAD CAPITAL TERRITORY,ISLAMABAD,ISLAMABAD DISTRICT,ISLAMABAD TEHSIL,6111,UC No.14 Sihala,UC No.14 Sihala,2,13,6111213,33.55817170,73.14051550,23,12,611121312,HUMAK
ISLAMABAD CAPITAL TERRITORY,ISLAMABAD,ISLAMABAD DISTRICT,ISLAMABAD TEHSIL,6111,UC No.14 Sihala,UC No.14 Sihala,2,13,6111213,33.55817170,73.14051550,23,11,611121311,NAZIAN
ISLAMABAD CAPITAL TERRITORY,ISLAMABAD,ISLAMABAD DISTRICT,ISLAMABAD TEHSIL,6111,UC No.14 Sihala,UC No.14 Sihala,2,13,6111213,33.55817170,73.14051550,23,10,611121310,THALIALA
ISLAMABAD CAPITAL TERRITORY,ISLAMABAD,ISLAMABAD DISTRICT,ISLAMABAD TEHSIL,6111,UC No.14 Sihala,UC No.14 Sihala,2,13,6111213,33.55817170,73.14051550,23,9,61112139,BHAMBAR TARAR
ISLAMABAD CAPITAL TERRITORY,ISLAMABAD,ISLAMABAD DISTRICT,ISLAMABAD TEHSIL,6111,UC No.14 Sihala,UC No.14 Sihala,2,13,6111213,33.55817170,73.14051550,23,8,61112138,CHAK KAMDAR
ISLAMABAD CAPITAL TERRITORY,ISLAMABAD,ISLAMABAD DISTRICT,ISLAMABAD TEHSIL,6111,UC No.14 Sihala,UC No.14 Sihala,2,13,6111213,33.55817170,73.14051550,23,7,61112137,HERDOGHER
ISLAMABAD CAPITAL TERRITORY,ISLAMABAD,ISLAMABAD DISTRICT,ISLAMABAD TEHSIL,6111,UC No.14 Sihala,UC No.14 Sihala,2,13,6111213,33.55817170,73.14051550,23,6,61112136,MIANA THUB
ISLAMABAD CAPITAL TERRITORY,ISLAMABAD,ISLAMABAD DISTRICT,ISLAMABAD TEHSIL,6111,UC No.14 Sihala,UC No.14 Sihala,2,13,6111213,33.55817170,73.14051550,23,5,61112135,MUGHAL
ISLAMABAD CAPITAL TERRITORY,ISLAMABAD,ISLAMABAD DISTRICT,ISLAMABAD TEHSIL,6111,UC No.14 Sihala,UC No.14 Sihala,2,13,6111213,33.55817170,73.14051550,23,4,61112134,DHA
ISLAMABAD CAPITAL TERRITORY,ISLAMABAD,ISLAMABAD DISTRICT,ISLAMABAD TEHSIL,6111,UC No.14 Sihala,UC No.14 Sihala,2,13,6111213,33.55817170,73.14051550,23,3,61112133,KANGOTA SYEDAN
ISLAMABAD CAPITAL TERRITORY,ISLAMABAD,ISLAMABAD DISTRICT,ISLAMABAD TEHSIL,6111,UC No.14 Sihala,UC No.14 Sihala,2,13,6111213,33.55817170,73.14051550,23,2,61112132,JANDAIN
ISLAMABAD CAPITAL TERRITORY,ISLAMABAD,ISLAMABAD DISTRICT,ISLAMABAD TEHSIL,6111,UC No.14 Sihala,UC No.14 Sihala,2,13,6111213,33.55817170,73.14051550,23,1,61112131,CHAKIAN
ISLAMABAD CAPITAL TERRITORY,ISLAMABAD,ISLAMABAD DISTRICT,ISLAMABAD TEHSIL,6111,UC No.15 RAWAT,UC No.15 RAWAT,2,14,6111214,33.55147710,73.16793830,15,15,611121415,MOHRA NAGIAL
ISLAMABAD CAPITAL TERRITORY,ISLAMABAD,ISLAMABAD DISTRICT,ISLAMABAD TEHSIL,6111,UC No.15 RAWAT,UC No.15 RAWAT,2,14,6111214,33.55147710,73.16793830,15,14,611121414,RAJWAL
ISLAMABAD CAPITAL TERRITORY,ISLAMABAD,ISLAMABAD DISTRICT,ISLAMABAD TEHSIL,6111,UC No.15 RAWAT,UC No.15 RAWAT,2,14,6111214,33.55147710,73.16793830,15,13,611121413,GOHRA SHAHAN
ISLAMABAD CAPITAL TERRITORY,ISLAMABAD,ISLAMABAD DISTRICT,ISLAMABAD TEHSIL,6111,UC No.15 RAWAT,UC No.15 RAWAT,2,14,6111214,33.55147710,73.16793830,15,12,611121412,DHA
ISLAMABAD CAPITAL TERRITORY,ISLAMABAD,ISLAMABAD DISTRICT,ISLAMABAD TEHSIL,6111,UC No.15 RAWAT,UC No.15 RAWAT,2,14,6111214,33.55147710,73.16793830,15,11,611121411,RAWAT
ISLAMABAD CAPITAL TERRITORY,ISLAMABAD,ISLAMABAD DISTRICT,ISLAMABAD TEHSIL,6111,UC No.15 RAWAT,UC No.15 RAWAT,2,14,6111214,33.55147710,73.16793830,15,10,611121410,KORTANA
ISLAMABAD CAPITAL TERRITORY,ISLAMABAD,ISLAMABAD DISTRICT,ISLAMABAD TEHSIL,6111,UC No.15 RAWAT,UC No.15 RAWAT,2,14,6111214,33.55147710,73.16793830,15,9,61112149,BANGRIL KHURD
ISLAMABAD CAPITAL TERRITORY,ISLAMABAD,ISLAMABAD DISTRICT,ISLAMABAD TEHSIL,6111,UC No.15 RAWAT,UC No.15 RAWAT,2,14,6111214,33.55147710,73.16793830,15,8,61112148,DHOKE RAJGAN
ISLAMABAD CAPITAL TERRITORY,ISLAMABAD,ISLAMABAD DISTRICT,ISLAMABAD TEHSIL,6111,UC No.15 RAWAT,UC No.15 RAWAT,2,14,6111214,33.55147710,73.16793830,15,7,61112147,BUNI SARAH
ISLAMABAD CAPITAL TERRITORY,ISLAMABAD,ISLAMABAD DISTRICT,ISLAMABAD TEHSIL,6111,UC No.15 RAWAT,UC No.15 RAWAT,2,14,6111214,33.55147710,73.16793830,15,6,61112146,MOHRI RAWAT
ISLAMABAD CAPITAL TERRITORY,ISLAMABAD,ISLAMABAD DISTRICT,ISLAMABAD TEHSIL,6111,UC No.15 RAWAT,UC No.15 RAWAT,2,14,6111214,33.55147710,73.16793830,15,5,61112145,POLICE FOUNDATION COLONY
ISLAMABAD CAPITAL TERRITORY,ISLAMABAD,ISLAMABAD DISTRICT,ISLAMABAD TEHSIL,6111,UC No.15 RAWAT,UC No.15 RAWAT,2,14,6111214,33.55147710,73.16793830,15,4,61112144,DHOKE ADRA
ISLAMABAD CAPITAL TERRITORY,ISLAMABAD,ISLAMABAD DISTRICT,ISLAMABAD TEHSIL,6111,UC No.15 RAWAT,UC No.15 RAWAT,2,14,6111214,33.55147710,73.16793830,15,3,61112143,CHAK KHAS RAWAT
ISLAMABAD CAPITAL TERRITORY,ISLAMABAD,ISLAMABAD DISTRICT,ISLAMABAD TEHSIL,6111,UC No.15 RAWAT,UC No.15 RAWAT,2,14,6111214,33.55147710,73.16793830,15,2,61112142,CHAK NOORI
ISLAMABAD CAPITAL TERRITORY,ISLAMABAD,ISLAMABAD DISTRICT,ISLAMABAD TEHSIL,6111,UC No.15 RAWAT,UC No.15 RAWAT,2,14,6111214,33.55147710,73.16793830,15,1,61112141,SHEIKHPUR
ISLAMABAD CAPITAL TERRITORY,ISLAMABAD,ISLAMABAD DISTRICT,ISLAMABAD TEHSIL,6111,UC No.16 Humak(Swan Camp),UC No.16 Humak(Swan Camp),2,15,6111215,33.53855944,73.14260915,1,1,61112151,UC No.16 Humak(Swan Camp)
ISLAMABAD CAPITAL TERRITORY,ISLAMABAD,ISLAMABAD DISTRICT,ISLAMABAD TEHSIL,6111,UC No.17 Humak,UC No.17 Humak,2,16,6111216,33.58243675,73.16343229,1,1,61112161,UC No.17 Humak
ISLAMABAD CAPITAL TERRITORY,ISLAMABAD,ISLAMABAD DISTRICT,ISLAMABAD TEHSIL,6111,UC No.18 Loi Bher,UC No.18 Loi Bher,2,17,6111217,33.58203097,73.16418021,1,1,61112171,UC No.18 Loi Bher
ISLAMABAD CAPITAL TERRITORY,ISLAMABAD,ISLAMABAD DISTRICT,ISLAMABAD TEHSIL,6111,UC No.19 Pagh Panwal,UC No.19 Pagh Panwal,2,18,6111218,33.58203097,73.16418021,1,1,61112181,UC No.19 Pagh Panwal
ISLAMABAD CAPITAL TERRITORY,ISLAMABAD,ISLAMABAD DISTRICT,ISLAMABAD TEHSIL,6111,UC No.2 Muslim Colony,UC No.2 Muslim Colony,2,19,6111219,33.5874944,73.15598933,1,1,61112191,UC No.2 Muslim Colony
ISLAMABAD CAPITAL TERRITORY,ISLAMABAD,ISLAMABAD DISTRICT,ISLAMABAD TEHSIL,6111,UC No.20 Kirpa,UC No.20 Kirpa,2,20,6111220,33.73676205,73.10967146,1,1,61112201,UC No.20 Kirpa
ISLAMABAD CAPITAL TERRITORY,ISLAMABAD,ISLAMABAD DISTRICT,ISLAMABAD TEHSIL,6111,UC No.21 Koral,UC No.21 Koral,2,21,6111221,33.62028171,73.23254557,5,5,61112215,KORAL
ISLAMABAD CAPITAL TERRITORY,ISLAMABAD,ISLAMABAD DISTRICT,ISLAMABAD TEHSIL,6111,UC No.21 Koral,UC No.21 Koral,2,21,6111221,33.62412000,73.11719000,5,4,61112214,GHOURI TOWN
ISLAMABAD CAPITAL TERRITORY,ISLAMABAD,ISLAMABAD DISTRICT,ISLAMABAD TEHSIL,6111,UC No.21 Koral,UC No.21 Koral,2,21,6111221,33.62412000,73.11719000,5,3,61112213,SHAREEFABAD
ISLAMABAD CAPITAL TERRITORY,ISLAMABAD,ISLAMABAD DISTRICT,ISLAMABAD TEHSIL,6111,UC No.21 Koral,UC No.21 Koral,2,21,6111221,33.62412000,73.11719000,5,2,61112212,LOHI BHEER
ISLAMABAD CAPITAL TERRITORY,ISLAMABAD,ISLAMABAD DISTRICT,ISLAMABAD TEHSIL,6111,UC No.21 Koral,UC No.21 Koral,2,21,6111221,33.62412000,73.11719000,5,1,61112211,GULBERG
ISLAMABAD CAPITAL TERRITORY,ISLAMABAD,ISLAMABAD DISTRICT,ISLAMABAD TEHSIL,6111,UC No.22 Harno Thand pani,UC No.22 Harno Thand pani,2,22,6111222,33.65847542,73.230843,1,1,61112221,UC No.22 Harno Thand pani
ISLAMABAD CAPITAL TERRITORY,ISLAMABAD,ISLAMABAD DISTRICT,ISLAMABAD TEHSIL,6111,UC No.23 Khana Dak,UC No.23 Khana Dak,2,23,6111223,33.62982684,73.12451134,1,1,61112231,UC No.23 Khana Dak
ISLAMABAD CAPITAL TERRITORY,ISLAMABAD,ISLAMABAD DISTRICT,ISLAMABAD TEHSIL,6111,UC No.24 Tarlai Kalan,UC No.24 Tarlai Kalan,2,24,6111224,33.64095360,73.15598450,4,4,61112244,TARLAE
ISLAMABAD CAPITAL TERRITORY,ISLAMABAD,ISLAMABAD DISTRICT,ISLAMABAD TEHSIL,6111,UC No.24 Tarlai Kalan,UC No.24 Tarlai Kalan,2,24,6111224,33.64095360,73.15598450,4,3,61112243,CHAPPAR MEER KALAN
ISLAMABAD CAPITAL TERRITORY,ISLAMABAD,ISLAMABAD DISTRICT,ISLAMABAD TEHSIL,6111,UC No.24 Tarlai Kalan,UC No.24 Tarlai Kalan,2,24,6111224,33.64095360,73.15598450,4,2,61112242,TRAMRI
ISLAMABAD CAPITAL TERRITORY,ISLAMABAD,ISLAMABAD DISTRICT,ISLAMABAD TEHSIL,6111,UC No.24 Tarlai Kalan,UC No.24 Tarlai Kalan,2,24,6111224,33.64095360,73.15598450,4,1,61112241,SUDHAR
ISLAMABAD CAPITAL TERRITORY,ISLAMABAD,ISLAMABAD DISTRICT,ISLAMABAD TEHSIL,6111,UC No.25 Ali Pur,UC No.25 Ali Pur,2,25,6111225,33.64139755,73.17794174,1,1,61112251,UC No.25 Ali Pur
ISLAMABAD CAPITAL TERRITORY,ISLAMABAD,ISLAMABAD DISTRICT,ISLAMABAD TEHSIL,6111,UC No.26 Mohrian,UC No.26 Mohrian,2,26,6111226,33.6717459,73.18992675,1,1,61112261,UC No.26 Mohrian
ISLAMABAD CAPITAL TERRITORY,ISLAMABAD,ISLAMABAD DISTRICT,ISLAMABAD TEHSIL,6111,UC No.27 Sohan Dehati,UC No.27 Sohan Dehati,2,27,6111227,33.66063618,73.09554907,1,1,61112271,UC No.27 Sohan Dehati
ISLAMABAD CAPITAL TERRITORY,ISLAMABAD,ISLAMABAD DISTRICT,ISLAMABAD TEHSIL,6111,UC No.28 Chakshahazad,UC No.28 Chakshahazad,2,28,6111228,33.66711585,73.14319941,1,1,61112281,UC No.28 Chakshahazad
ISLAMABAD CAPITAL TERRITORY,ISLAMABAD,ISLAMABAD DISTRICT,ISLAMABAD TEHSIL,6111,UC No.29 Malot,UC No.29 Malot,2,29,6111229,33.70701062,73.21138102,1,1,61112291,UC No.29 Malot
ISLAMABAD CAPITAL TERRITORY,ISLAMABAD,ISLAMABAD DISTRICT,ISLAMABAD TEHSIL,6111,UC No.3 NoorPur Shahan,UC No.3 NoorPur Shahan,2,30,6111230,33.73930920,73.09661070,2,2,61112302,JKL
ISLAMABAD CAPITAL TERRITORY,ISLAMABAD,ISLAMABAD DISTRICT,ISLAMABAD TEHSIL,6111,UC No.3 NoorPur Shahan,UC No.3 NoorPur Shahan,2,30,6111230,33.73930920,73.09661070,2,1,61112301,MNO
ISLAMABAD CAPITAL TERRITORY,ISLAMABAD,ISLAMABAD DISTRICT,ISLAMABAD TEHSIL,6111,UC No.30 Mohra Noor,UC No.30 Mohra Noor,2,31,6111231,33.69278183,73.15945068,1,1,61112311,UC No.30 Mohra Noor
ISLAMABAD CAPITAL TERRITORY,ISLAMABAD,ISLAMABAD DISTRICT,ISLAMABAD TEHSIL,6111,UC No.31 Rawal Town,UC No.31 Rawal Town,2,32,6111232,33.68721190,73.11425890,3,3,61112323,RAWAL TOWN
ISLAMABAD CAPITAL TERRITORY,ISLAMABAD,ISLAMABAD DISTRICT,ISLAMABAD TEHSIL,6111,UC No.31 Rawal Town,UC No.31 Rawal Town,2,32,6111232,33.68721190,73.11425890,3,2,61112322,MARGALA TOWN
ISLAMABAD CAPITAL TERRITORY,ISLAMABAD,ISLAMABAD DISTRICT,ISLAMABAD TEHSIL,6111,UC No.31 Rawal Town,UC No.31 Rawal Town,2,32,6111232,33.68721190,73.11425890,3,1,61112321,OJREE VILLAGE
ISLAMABAD CAPITAL TERRITORY,ISLAMABAD,ISLAMABAD DISTRICT,ISLAMABAD TEHSIL,6111,UC No.32 Margala Town,UC No.32 Margala Town,2,33,6111233,33.67266213,73.1065671,1,1,61112331,UC No.32 Margala Town
ISLAMABAD CAPITAL TERRITORY,ISLAMABAD,ISLAMABAD DISTRICT,ISLAMABAD TEHSIL,6111,UC No.33 F-6/1 & 4,UC No.33 F-6/1 & 4,2,34,6111234,33.72380620,73.06846450,4,4,61112344,F6/1
ISLAMABAD CAPITAL TERRITORY,ISLAMABAD,ISLAMABAD DISTRICT,ISLAMABAD TEHSIL,6111,UC No.33 F-6/1 & 4,UC No.33 F-6/1 & 4,2,34,6111234,33.72380620,73.06846450,4,3,61112343,F6/2
ISLAMABAD CAPITAL TERRITORY,ISLAMABAD,ISLAMABAD DISTRICT,ISLAMABAD TEHSIL,6111,UC No.33 F-6/1 & 4,UC No.33 F-6/1 & 4,2,34,6111234,33.72380620,73.06846450,4,2,61112342,F6/3
ISLAMABAD CAPITAL TERRITORY,ISLAMABAD,ISLAMABAD DISTRICT,ISLAMABAD TEHSIL,6111,UC No.33 F-6/1 & 4,UC No.33 F-6/1 & 4,2,34,6111234,33.72380620,73.06846450,4,1,61112341,F6/4
ISLAMABAD CAPITAL TERRITORY,ISLAMABAD,ISLAMABAD DISTRICT,ISLAMABAD TEHSIL,6111,UC No.34 F-6/2&3,UC No.34 F-6/2&3,2,35,6111235,33.73060056,73.06937777,1,1,61112351,UC No.34 F-6/2&3
ISLAMABAD CAPITAL TERRITORY,ISLAMABAD,ISLAMABAD DISTRICT,ISLAMABAD TEHSIL,6111,"UC No.35 G-6/2,","UC No.35 G-6/2,",2,36,6111236,33.71811571,73.08049424,1,1,61112361,"UC No.35 G-6/2,"
ISLAMABAD CAPITAL TERRITORY,ISLAMABAD,ISLAMABAD DISTRICT,ISLAMABAD TEHSIL,6111,"UC No.36 G-6/1-3, & 4","UC No.36 G-6/1-3, & 4",2,37,6111237,33.71157040,73.09619250,4,4,61112374,G-6/1
ISLAMABAD CAPITAL TERRITORY,ISLAMABAD,ISLAMABAD DISTRICT,ISLAMABAD TEHSIL,6111,"UC No.36 G-6/1-3, & 4","UC No.36 G-6/1-3, & 4",2,37,6111237,33.71157040,73.09619250,4,3,61112373,G-6/2
ISLAMABAD CAPITAL TERRITORY,ISLAMABAD,ISLAMABAD DISTRICT,ISLAMABAD TEHSIL,6111,"UC No.36 G-6/1-3, & 4","UC No.36 G-6/1-3, & 4",2,37,6111237,33.71157040,73.09619250,4,2,61112372,G-6/3
ISLAMABAD CAPITAL TERRITORY,ISLAMABAD,ISLAMABAD DISTRICT,ISLAMABAD TEHSIL,6111,"UC No.36 G-6/1-3, & 4","UC No.36 G-6/1-3, & 4",2,37,6111237,33.71157040,73.09619250,4,1,61112371,G-6/4
ISLAMABAD CAPITAL TERRITORY,ISLAMABAD,ISLAMABAD DISTRICT,ISLAMABAD TEHSIL,6111,UC No.37 G-6/1-1 & 2,UC No.37 G-6/1-1 & 2,2,38,6111238,33.71316018,73.08221094,1,1,61112381,UC No.37 G-6/1-1 & 2
ISLAMABAD CAPITAL TERRITORY,ISLAMABAD,ISLAMABAD DISTRICT,ISLAMABAD TEHSIL,6111,UC No.38 E-8,UC No.38 E-8,2,39,6111239,33.72344440,73.03905950,1,1,61112391,UC No.38 E-8
ISLAMABAD CAPITAL TERRITORY,ISLAMABAD,ISLAMABAD DISTRICT,ISLAMABAD TEHSIL,6111,UC No.39 E-9,UC No.39 E-9,2,40,6111240,33.71746622,73.01251942,1,1,61112401,UC No.39 E-9
ISLAMABAD CAPITAL TERRITORY,ISLAMABAD,ISLAMABAD DISTRICT,ISLAMABAD TEHSIL,6111,UC No.4 Malpur,UC No.4 Malpur,2,41,6111241,33.72728136,73.15233641,1,1,61112411,UC No.4 Malpur
ISLAMABAD CAPITAL TERRITORY,ISLAMABAD,ISLAMABAD DISTRICT,ISLAMABAD TEHSIL,6111,UC No.40 F-7,UC No.40 F-7,2,42,6111242,33.72771050,73.05823750,4,4,61112424,F7/1
ISLAMABAD CAPITAL TERRITORY,ISLAMABAD,ISLAMABAD DISTRICT,ISLAMABAD TEHSIL,6111,UC No.40 F-7,UC No.40 F-7,2,42,6111242,33.72771050,73.05823750,4,3,61112423,F7/2
ISLAMABAD CAPITAL TERRITORY,ISLAMABAD,ISLAMABAD DISTRICT,ISLAMABAD TEHSIL,6111,UC No.40 F-7,UC No.40 F-7,2,42,6111242,33.72771050,73.05823750,4,2,61112422,F7/3
ISLAMABAD CAPITAL TERRITORY,ISLAMABAD,ISLAMABAD DISTRICT,ISLAMABAD TEHSIL,6111,UC No.40 F-7,UC No.40 F-7,2,42,6111242,33.72771050,73.05823750,4,1,61112421,F7/4
ISLAMABAD CAPITAL TERRITORY,ISLAMABAD,ISLAMABAD DISTRICT,ISLAMABAD TEHSIL,6111,UC No.41 F-8,UC No.41 F-8,2,43,6111243,33.71316018,73.08221094,1,1,61112431,UC No.41 F-8
ISLAMABAD CAPITAL TERRITORY,ISLAMABAD,ISLAMABAD DISTRICT,ISLAMABAD TEHSIL,6111,UC No.42 F-10/3 &2,UC No.42 F-10/3 &2,2,44,6111244,33.72728136,73.15233641,1,1,61112441,UC No.42 F-10/3 &2
ISLAMABAD CAPITAL TERRITORY,ISLAMABAD,ISLAMABAD DISTRICT,ISLAMABAD TEHSIL,6111,UC No.43 F-10,UC No.43 F-10,2,45,6111245,33.73936370,73.09681560,2,2,61112452,JKL
ISLAMABAD CAPITAL TERRITORY,ISLAMABAD,ISLAMABAD DISTRICT,ISLAMABAD TEHSIL,6111,UC No.43 F-10,UC No.43 F-10,2,45,6111245,33.73936370,73.09681560,2,1,61112451,NMO
ISLAMABAD CAPITAL TERRITORY,ISLAMABAD,ISLAMABAD DISTRICT,ISLAMABAD TEHSIL,6111,UC No.44 F-11,UC No.44 F-11,2,46,6111246,33.68811992,72.98780764,1,1,61112461,UC No.44 F-11
ISLAMABAD CAPITAL TERRITORY,ISLAMABAD,ISLAMABAD DISTRICT,ISLAMABAD TEHSIL,6111,UC No.45 G-7/3-3 & 4,UC No.45 G-7/3-3 & 4,2,47,6111247,33.71258829,73.07102389,1,1,61112471,UC No.45 G-7/3-3 & 4
ISLAMABAD CAPITAL TERRITORY,ISLAMABAD,ISLAMABAD DISTRICT,ISLAMABAD TEHSIL,6111,UC No.46 G-7/3-1 & 2,UC No.46 G-7/3-1 & 2,2,48,6111248,33.70964167,73.07006323,1,1,61112481,UC No.46 G-7/3-1 & 2
ISLAMABAD CAPITAL TERRITORY,ISLAMABAD,ISLAMABAD DISTRICT,ISLAMABAD TEHSIL,6111,UC No.47 G-7/ 4,UC No.47 G-7/ 4,2,49,6111249,33.70650004,73.0738827,1,1,61112491,UC No.47 G-7/ 4
ISLAMABAD CAPITAL TERRITORY,ISLAMABAD,ISLAMABAD DISTRICT,ISLAMABAD TEHSIL,6111,UC No.48 G-7/2,UC No.48 G-7/2,2,50,6111250,33.70632144,73.06113544,1,1,61112501,UC No.48 G-7/2
ISLAMABAD CAPITAL TERRITORY,ISLAMABAD,ISLAMABAD DISTRICT,ISLAMABAD TEHSIL,6111,UC No.49 G-7/1,UC No.49 G-7/1,2,51,6111251,33.69837075,73.06612751,1,1,61112511,UC No.49 G-7/1
ISLAMABAD CAPITAL TERRITORY,ISLAMABAD,ISLAMABAD DISTRICT,ISLAMABAD TEHSIL,6111,UC No.5 Kot Hathial(north-I),UC No.5 Kot Hathial(north-I),2,52,6111252,33.74692894,73.17716195,1,1,61112521,UC No.5 Kot Hathial(north-I)
ISLAMABAD CAPITAL TERRITORY,ISLAMABAD,ISLAMABAD DISTRICT,ISLAMABAD TEHSIL,6111,UC No.50 G-8/4,UC No.50 G-8/4,2,53,6111253,33.69632824,73.05575359,1,1,61112531,UC No.50 G-8/4
ISLAMABAD CAPITAL TERRITORY,ISLAMABAD,ISLAMABAD DISTRICT,ISLAMABAD TEHSIL,6111,UC No.51 G-8/2,UC No.51 G-8/2,2,54,6111254,33.69740512,73.04502408,1,1,61112541,UC No.51 G-8/2
ISLAMABAD CAPITAL TERRITORY,ISLAMABAD,ISLAMABAD DISTRICT,ISLAMABAD TEHSIL,6111,UC No.52 G-8/1,UC No.52 G-8/1,2,55,6111255,33.69295581,73.04839621,1,1,61112551,UC No.52 G-8/1
ISLAMABAD CAPITAL TERRITORY,ISLAMABAD,ISLAMABAD DISTRICT,ISLAMABAD TEHSIL,6111,UC No.53 G-9/4,UC No.53 G-9/4,2,56,6111256,33.68717419,73.03879074,1,1,61112561,UC No.53 G-9/4
ISLAMABAD CAPITAL TERRITORY,ISLAMABAD,ISLAMABAD DISTRICT,ISLAMABAD TEHSIL,6111,UC No.54 G-9/3,UC No.54 G-9/3,2,57,6111257,33.69208288,73.03774433,1,1,61112571,UC No.54 G-9/3
ISLAMABAD CAPITAL TERRITORY,ISLAMABAD,ISLAMABAD DISTRICT,ISLAMABAD TEHSIL,6111,UC No.55 G-9/1,UC No.55 G-9/1,2,58,6111258,33.68607100,73.03154600,4,4,61112584,G9/1
ISLAMABAD CAPITAL TERRITORY,ISLAMABAD,ISLAMABAD DISTRICT,ISLAMABAD TEHSIL,6111,UC No.55 G-9/1,UC No.55 G-9/1,2,58,6111258,33.68607100,73.03154600,4,3,61112583,G9/2
ISLAMABAD CAPITAL TERRITORY,ISLAMABAD,ISLAMABAD DISTRICT,ISLAMABAD TEHSIL,6111,UC No.55 G-9/1,UC No.55 G-9/1,2,58,6111258,33.68607100,73.03154600,4,2,61112582,G9/3
ISLAMABAD CAPITAL TERRITORY,ISLAMABAD,ISLAMABAD DISTRICT,ISLAMABAD TEHSIL,6111,UC No.55 G-9/1,UC No.55 G-9/1,2,58,6111258,33.68607100,73.03154600,4,1,61112581,G9/4
ISLAMABAD CAPITAL TERRITORY,ISLAMABAD,ISLAMABAD DISTRICT,ISLAMABAD TEHSIL,6111,UC No.56 G-9/2,UC No.56 G-9/2,2,59,6111259,33.68952268,73.02773636,1,1,61112591,UC No.56 G-9/2
ISLAMABAD CAPITAL TERRITORY,ISLAMABAD,ISLAMABAD DISTRICT,ISLAMABAD TEHSIL,6111,UC N0. 12 Bhimber Tarar,UC N0. 12 Bhimber Tarar,2,60,6111260,33.68952268,73.02773636,1,1,61112601,UC N0. 12 Bhimber Tarar
ISLAMABAD CAPITAL TERRITORY,ISLAMABAD,ISLAMABAD DISTRICT,ISLAMABAD TEHSIL,6111,UC No.58 G-10/4,UC No.58 G-10/4,2,61,6111261,33.67848211,73.02287969,1,1,61112611,UC No.58 G-10/4
ISLAMABAD CAPITAL TERRITORY,ISLAMABAD,ISLAMABAD DISTRICT,ISLAMABAD TEHSIL,6111,UC No.59 G-10/3,UC No.59 G-10/3,2,62,6111262,33.68516692,73.01982246,1,1,61112621,UC No.59 G-10/3
ISLAMABAD CAPITAL TERRITORY,ISLAMABAD,ISLAMABAD DISTRICT,ISLAMABAD TEHSIL,6111,UC No.6 Kot Hathial(north-II),UC No.6 Kot Hathial(north-II),2,63,6111263,33.74692894,73.17716195,1,1,61112631,UC No.6 Kot Hathial(north-II)
ISLAMABAD CAPITAL TERRITORY,ISLAMABAD,ISLAMABAD DISTRICT,ISLAMABAD TEHSIL,6111,UC No.60 G-10/2,UC No.60 G-10/2,2,64,6111264,33.68078261,73.01322014,1,1,61112641,UC No.60 G-10/2
ISLAMABAD CAPITAL TERRITORY,ISLAMABAD,ISLAMABAD DISTRICT,ISLAMABAD TEHSIL,6111,UC No.61 G-11/2&3,UC No.61 G-11/2&3,2,65,6111265,33.6728524,72.99357579,1,1,61112651,UC No.61 G-11/2&3
ISLAMABAD CAPITAL TERRITORY,ISLAMABAD,ISLAMABAD DISTRICT,ISLAMABAD TEHSIL,6111,UC No.62 G-11/1&4,UC No.62 G-11/1&4,2,66,6111266,33.66486731,72.99595002,1,1,61112661,UC No.62 G-11/1&4
ISLAMABAD CAPITAL TERRITORY,ISLAMABAD,ISLAMABAD DISTRICT,ISLAMABAD TEHSIL,6111,"UC No.64 I-8 & H,Sector","UC No.64 I-8 & H,Sector",2,67,6111267,33.66147590,73.06606030,5,5,61112675,I8/1
ISLAMABAD CAPITAL TERRITORY,ISLAMABAD,ISLAMABAD DISTRICT,ISLAMABAD TEHSIL,6111,"UC No.64 I-8 & H,Sector","UC No.64 I-8 & H,Sector",2,67,6111267,33.66147590,73.06606030,5,4,61112674,I8/2
ISLAMABAD CAPITAL TERRITORY,ISLAMABAD,ISLAMABAD DISTRICT,ISLAMABAD TEHSIL,6111,"UC No.64 I-8 & H,Sector","UC No.64 I-8 & H,Sector",2,67,6111267,33.66147590,73.06606030,5,3,61112673,I8/3
ISLAMABAD CAPITAL TERRITORY,ISLAMABAD,ISLAMABAD DISTRICT,ISLAMABAD TEHSIL,6111,"UC No.64 I-8 & H,Sector","UC No.64 I-8 & H,Sector",2,67,6111267,33.66147590,73.06606030,5,2,61112672,I8/4
ISLAMABAD CAPITAL TERRITORY,ISLAMABAD,ISLAMABAD DISTRICT,ISLAMABAD TEHSIL,6111,"UC No.64 I-8 & H,Sector","UC No.64 I-8 & H,Sector",2,67,6111267,33.66147590,73.06606030,5,1,61112671,I8 MARKAZ
ISLAMABAD CAPITAL TERRITORY,ISLAMABAD,ISLAMABAD DISTRICT,ISLAMABAD TEHSIL,6111,UC No.66 I-9/1 & H-9,UC No.66 I-9/1 & H-9,2,68,6111268,33.66888740,73.03615640,2,2,61112682,H9/1
ISLAMABAD CAPITAL TERRITORY,ISLAMABAD,ISLAMABAD DISTRICT,ISLAMABAD TEHSIL,6111,UC No.66 I-9/1 & H-9,UC No.66 I-9/1 & H-9,2,68,6111268,33.66888740,73.03615640,2,1,61112681,H9/2
ISLAMABAD CAPITAL TERRITORY,ISLAMABAD,ISLAMABAD DISTRICT,ISLAMABAD TEHSIL,6111,UC No.66 I-9/1 & H-9,UC No.66 I-9/1 & H-9,2,68,6111268,33.65716600,73.05661840,4,4,61112684,I9/1
ISLAMABAD CAPITAL TERRITORY,ISLAMABAD,ISLAMABAD DISTRICT,ISLAMABAD TEHSIL,6111,UC No.66 I-9/1 & H-9,UC No.66 I-9/1 & H-9,2,68,6111268,33.65716600,73.05661840,4,3,61112683,I9/2
ISLAMABAD CAPITAL TERRITORY,ISLAMABAD,ISLAMABAD DISTRICT,ISLAMABAD TEHSIL,6111,UC No.66 I-9/1 & H-9,UC No.66 I-9/1 & H-9,2,68,6111268,33.65716600,73.05661840,4,2,61112682,I9/3
ISLAMABAD CAPITAL TERRITORY,ISLAMABAD,ISLAMABAD DISTRICT,ISLAMABAD TEHSIL,6111,UC No.66 I-9/1 & H-9,UC No.66 I-9/1 & H-9,2,68,6111268,33.65716600,73.05661840,4,1,61112681,I9/4
ISLAMABAD CAPITAL TERRITORY,ISLAMABAD,ISLAMABAD DISTRICT,ISLAMABAD TEHSIL,6111,UC No.68 I-10/1,UC No.68 I-10/1,2,69,6111269,33.64451010,73.03825220,5,5,61112695,KACHI ABADI
ISLAMABAD CAPITAL TERRITORY,ISLAMABAD,ISLAMABAD DISTRICT,ISLAMABAD TEHSIL,6111,UC No.68 I-10/1,UC No.68 I-10/1,2,69,6111269,33.64451010,73.03825220,5,4,61112694,I10/1
ISLAMABAD CAPITAL TERRITORY,ISLAMABAD,ISLAMABAD DISTRICT,ISLAMABAD TEHSIL,6111,UC No.68 I-10/1,UC No.68 I-10/1,2,69,6111269,33.64451010,73.03825220,5,3,61112693,I10/2
ISLAMABAD CAPITAL TERRITORY,ISLAMABAD,ISLAMABAD DISTRICT,ISLAMABAD TEHSIL,6111,UC No.68 I-10/1,UC No.68 I-10/1,2,69,6111269,33.64451010,73.03825220,5,2,61112692,I10/3
ISLAMABAD CAPITAL TERRITORY,ISLAMABAD,ISLAMABAD DISTRICT,ISLAMABAD TEHSIL,6111,UC No.68 I-10/1,UC No.68 I-10/1,2,69,6111269,33.64451010,73.03825220,5,1,61112691,I10/4
ISLAMABAD CAPITAL TERRITORY,ISLAMABAD,ISLAMABAD DISTRICT,ISLAMABAD TEHSIL,6111,UC No.7 Kot Hathial(South),UC No.7 Kot Hathial(South),2,70,6111270,33.74817788,73.17771985,1,1,61112701,UC No.7 Kot Hathial(South)
ISLAMABAD CAPITAL TERRITORY,ISLAMABAD,ISLAMABAD DISTRICT,ISLAMABAD TEHSIL,6111,UC No.71 Maira Sumbal Jaffar,UC No.71 Maira Sumbal Jaffar,2,71,6111271,33.66815471,72.97797314,1,1,61112711,UC No.71 Maira Sumbal Jaffar
ISLAMABAD CAPITAL TERRITORY,ISLAMABAD,ISLAMABAD DISTRICT,ISLAMABAD TEHSIL,6111,UC No.77 Shah Allah Dita,UC No.77 Shah Allah Dita,2,72,6111272,33.7108763,72.9211944,1,1,61112721,UC No.77 Shah Allah Dita
ISLAMABAD CAPITAL TERRITORY,ISLAMABAD,ISLAMABAD DISTRICT,ISLAMABAD TEHSIL,6111,UC No.78 Golra Sharif,UC No.78 Golra Sharif,2,73,6111273,33.69515560,72.97758570,12,12,611127312,GOLRA SHAREEF
ISLAMABAD CAPITAL TERRITORY,ISLAMABAD,ISLAMABAD DISTRICT,ISLAMABAD TEHSIL,6111,UC No.78 Golra Sharif,UC No.78 Golra Sharif,2,73,6111273,33.69515560,72.97758570,12,11,611127311,SIKANDRABAD
ISLAMABAD CAPITAL TERRITORY,ISLAMABAD,ISLAMABAD DISTRICT,ISLAMABAD TEHSIL,6111,UC No.78 Golra Sharif,UC No.78 Golra Sharif,2,73,6111273,33.69515560,72.97758570,12,10,611127310,E11
ISLAMABAD CAPITAL TERRITORY,ISLAMABAD,ISLAMABAD DISTRICT,ISLAMABAD TEHSIL,6111,UC No.78 Golra Sharif,UC No.78 Golra Sharif,2,73,6111273,33.69515560,72.97758570,12,9,61112739,E10
ISLAMABAD CAPITAL TERRITORY,ISLAMABAD,ISLAMABAD DISTRICT,ISLAMABAD TEHSIL,6111,UC No.78 Golra Sharif,UC No.78 Golra Sharif,2,73,6111273,33.69515560,72.97758570,12,8,61112738,CHAUNTRA
ISLAMABAD CAPITAL TERRITORY,ISLAMABAD,ISLAMABAD DISTRICT,ISLAMABAD TEHSIL,6111,UC No.78 Golra Sharif,UC No.78 Golra Sharif,2,73,6111273,33.69515560,72.97758570,12,7,61112737,JOHD
ISLAMABAD CAPITAL TERRITORY,ISLAMABAD,ISLAMABAD DISTRICT,ISLAMABAD TEHSIL,6111,UC No.78 Golra Sharif,UC No.78 Golra Sharif,2,73,6111273,33.69515560,72.97758570,12,6,61112736,PIND SANGRIAL
ISLAMABAD CAPITAL TERRITORY,ISLAMABAD,ISLAMABAD DISTRICT,ISLAMABAD TEHSIL,6111,UC No.78 Golra Sharif,UC No.78 Golra Sharif,2,73,6111273,33.69515560,72.97758570,12,5,61112735,BANI STOP
ISLAMABAD CAPITAL TERRITORY,ISLAMABAD,ISLAMABAD DISTRICT,ISLAMABAD TEHSIL,6111,UC No.78 Golra Sharif,UC No.78 Golra Sharif,2,73,6111273,33.69515560,72.97758570,12,4,61112734,F13
ISLAMABAD CAPITAL TERRITORY,ISLAMABAD,ISLAMABAD DISTRICT,ISLAMABAD TEHSIL,6111,UC No.78 Golra Sharif,UC No.78 Golra Sharif,2,73,6111273,33.69515560,72.97758570,12,3,61112733,MAIRA BERI
ISLAMABAD CAPITAL TERRITORY,ISLAMABAD,ISLAMABAD DISTRICT,ISLAMABAD TEHSIL,6111,UC No.78 Golra Sharif,UC No.78 Golra Sharif,2,73,6111273,33.69515560,72.97758570,12,2,61112732,FAISAL COLONY
ISLAMABAD CAPITAL TERRITORY,ISLAMABAD,ISLAMABAD DISTRICT,ISLAMABAD TEHSIL,6111,UC No.78 Golra Sharif,UC No.78 Golra Sharif,2,73,6111273,33.69515560,72.97758570,12,1,61112731,DHRIK MOHRI
ISLAMABAD CAPITAL TERRITORY,ISLAMABAD,ISLAMABAD DISTRICT,ISLAMABAD TEHSIL,6111,UC No.79 Maira Beri,UC No.79 Maira Beri,2,74,6111274,33.72131356,72.98726309,1,1,61112741,UC No.79 Maira Beri
ISLAMABAD CAPITAL TERRITORY,ISLAMABAD,ISLAMABAD DISTRICT,ISLAMABAD TEHSIL,6111,UC No.8 Phulgran,UC No.8 Phulgran,2,75,6111275,33.73392879,73.20441306,1,1,61112751,UC No.8 Phulgran
ISLAMABAD CAPITAL TERRITORY,ISLAMABAD,ISLAMABAD DISTRICT,ISLAMABAD TEHSIL,6111,UC No.9 Pind Begowal,UC No.9 Pind Begowal,2,76,6111276,33.71313296,73.25446809,1,1,61112761,UC No.9 Pind Begowal
,,,,,,,,,,,,,,,
,,,,,,,,,,,,,,,
